{
    "links": {
        "self": "http://www.neowsapp.com/rest/v1/neo/3712886?api_key=iIulBulltgU6a56xZRHN4H3l9WmuAYTsLGpBGhQ2"
    },
    "id": "3712886",
    "neo_reference_id": "3712886",
    "name": "(2015 DW215)",
    "designation": "2015 DW215",
    "nasa_jpl_url": "http://ssd.jpl.nasa.gov/sbdb.cgi?sstr=3712886",
    "absolute_magnitude_h": 22.6,
    "estimated_diameter": {
        "kilometers": {
            "estimated_diameter_min": 0.0802703167,
            "estimated_diameter_max": 0.1794898848
        },
        "meters": {
            "estimated_diameter_min": 80.2703167283,
            "estimated_diameter_max": 179.4898847799
        },
        "miles": {
            "estimated_diameter_min": 0.049877647,
            "estimated_diameter_max": 0.1115298092
        },
        "feet": {
            "estimated_diameter_min": 263.3540659348,
            "estimated_diameter_max": 588.8775935812
        }
    },
    "is_potentially_hazardous_asteroid": false,
    "close_approach_data": [
        {
            "close_approach_date": "1992-11-24",
            "close_approach_date_full": "1992-Nov-24 09:58",
            "epoch_date_close_approach": 722599080000,
            "relative_velocity": {
                "kilometers_per_second": "8.7339711742",
                "kilometers_per_hour": "31442.2962270192",
                "miles_per_hour": "19537.0201195054"
            },
            "miss_distance": {
                "astronomical": "0.0787573082",
                "lunar": "30.6365928898",
                "kilometers": "11781925.553653534",
                "miles": "7320949.0621214092"
            },
            "orbiting_body": "Mars"
        },
        {
            "close_approach_date": "2015-03-03",
            "close_approach_date_full": "2015-Mar-03 02:04",
            "epoch_date_close_approach": 1425348240000,
            "relative_velocity": {
                "kilometers_per_second": "0.6041346107",
                "kilometers_per_hour": "2174.8845985035",
                "miles_per_hour": "1351.3887106646"
            },
            "miss_distance": {
                "astronomical": "0.30452962",
                "lunar": "118.46202218",
                "kilometers": "45556982.5039094",
                "miles": "28307796.27797372"
            },
            "orbiting_body": "Earth"
        },
        {
            "close_approach_date": "2084-01-15",
            "close_approach_date_full": "2084-Jan-15 14:21",
            "epoch_date_close_approach": 3598784460000,
            "relative_velocity": {
                "kilometers_per_second": "10.8459896241",
                "kilometers_per_hour": "39045.5626467877",
                "miles_per_hour": "24261.3941901665"
            },
            "miss_distance": {
                "astronomical": "0.0706299666",
                "lunar": "27.4750570074",
                "kilometers": "10566092.561531142",
                "miles": "6565465.4730560796"
            },
            "orbiting_body": "Mars"
        },
        {
            "close_approach_date": "2185-07-28",
            "close_approach_date_full": "2185-Jul-28 19:23",
            "epoch_date_close_approach": 6802860180000,
            "relative_velocity": {
                "kilometers_per_second": "8.4700173908",
                "kilometers_per_hour": "30492.0626068171",
                "miles_per_hour": "18946.5819014414"
            },
            "miss_distance": {
                "astronomical": "0.0989581819",
                "lunar": "38.4947327591",
                "kilometers": "14803933.231312553",
                "miles": "9198737.5588091114"
            },
            "orbiting_body": "Mars"
        }
    ],
    "orbital_data": {
        "orbit_id": "10",
        "orbit_determination_date": "2017-04-06 08:35:17",
        "first_observation_date": "2015-02-20",
        "last_observation_date": "2015-04-23",
        "data_arc_in_days": 62,
        "observations_used": 26,
        "orbit_uncertainty": "6",
        "minimum_orbit_intersection": ".301382",
        "jupiter_tisserand_invariant": "3.801",
        "epoch_osculation": "2459000.5",
        "eccentricity": ".3487496920779296",
        "semi_major_axis": "1.960464144534956",
        "inclination": "4.71664397170224",
        "ascending_node_longitude": "63.76669560121051",
        "orbital_period": "1002.620967269328",
        "perihelion_distance": "1.276752877798568",
        "perihelion_argument": "90.766591622154",
        "aphelion_distance": "2.644175411271343",
        "perihelion_time": "2459078.628308392797",
        "mean_anomaly": "331.9473340977403",
        "mean_motion": ".3590589183273038",
        "equinox": "J2000",
        "orbit_class": {
            "orbit_class_type": "AMO",
            "orbit_class_description": "Near-Earth asteroid orbits similar to that of 1221 Amor",
            "orbit_class_range": "1.017 AU < q (perihelion) < 1.3 AU"
        }
    },
    "is_sentry_object": false
}